DUBAISAT-1              
1 35682U 09041B   26170.32752143  .00000577  00000+0  93001-4 0  9996
2 35682  98.0055 303.5617 0011594  67.6524 292.5912 14.75125326905413
OCEANSAT-2              
1 35931U 09051A   26170.63006410 -.00000178  00000+0 -95907-4 0  9993
2 35931  98.2323 157.2379 0015398 228.5944 131.3900 13.99663835879671
WORLDVIEW-2 (WV-2)      
1 35946U 09055A   26170.52972385  .00000080  00000+0  41035-4 0  9997
2 35946  98.4737 243.9470 0003857 200.2111 159.8924 14.37900026875983
SMOS                    
1 36036U 09059A   26170.48288297  .00000171  00000+0  68385-4 0  9997
2 36036  98.4425 357.7841 0001323  88.1500 271.9840 14.39773615873788
YAOGAN-7                
1 36110U 09069A   26170.39056674  .00000360  00000+0  56942-4 0  9999
2 36110  98.0069  56.2440 0025442  34.9411 325.3463 14.78011823889955
TANDEM-X                
1 36605U 10030A   26170.49711645  .00000194  00000+0  12414-4 0  9996
2 36605  97.4451 178.1721 0001891  87.7400 272.4051 15.19151444886990
CARTOSAT-2B             
1 36795U 10035A   26170.57279034  .00001018  00000+0  14591-3 0  9994
2 36795  97.9945 221.1079 0011390 175.9058 184.2248 14.78665577860207
YAOGAN-10               
1 36834U 10038A   26170.64961811  .00001763  00000+0  21122-3 0  9995
2 36834  97.8971 194.0345 0001748  87.6085  16.4400 14.85357142857574
COSMO-SKYMED 4          
1 37216U 10060A   26170.60409350  .00000431  00000+0  60757-4 0  9995
2 37216  97.8885 354.1681 0001410  85.7122 274.4252 14.82155109844924
RESOURCESAT-2           
1 37387U 11015A   26170.55240517  .00000073  00000+0  53688-4 0  9994
2 37387  98.7644 237.9781 0010236 247.8126 112.1966 14.21600252786513
HAIYANG-2A              
1 37781U 11043A   26170.58639622 -.00000120  00000+0 -80952-4 0  9994
2 37781  99.3392 173.2097 0005797  86.7620 273.4192 13.74331787746985
RASAT                   
1 37791U 11044D   26170.63957913  .00000475  00000+0  90832-4 0  9997
2 37791  98.0579 261.9992 0020377 180.8222 286.1711 14.68168501793541
SRMSAT                  
1 37841U 11058D   26170.35988047  .00000354  00000+0  48474-4 0  9990
2 37841  19.9728  46.3158 0011744 227.6220 288.1945 14.11575972758128
PLEIADES 1A             
1 38012U 11076F   26170.68115689  .00000385  00000+0  92657-4 0  9997
2 38012  98.1974 245.7512 0001713  95.1799  57.2873 14.58572940772353
ZIYUAN 1-02C (ZY 1-02C) 
1 38038U 11079A   26170.66708616  .00000606  00000+0  21362-3 0  9994
2 38038  98.4068 237.9242 0005366 308.2623 203.6234 14.38217692759567
ARIRANG-3 (KOMPSAT-3)   
1 38338U 12025B   26170.63307169  .00000321  00000+0  72922-4 0  9997
2 38338  98.1172 128.0508 0006738 103.2197 256.9757 14.62207901751709
EXACTVIEW-1 (ADS-1B)    
1 38709U 12039C   26170.55792594  .00000087  00000+0  57017-4 0  9992
2 38709  98.9781 288.0016 0011289 159.8104 200.3523 14.24985146723040
SPOT 6                  
1 38755U 12047A   26170.59887108  .00000443  00000+0  10521-3 0  9996
2 38755  98.2114 237.8802 0001524  92.6679 267.4695 14.58565124733403
PLEIADES 1B             
1 39019U 12068A   26170.61779405  .00000498  00000+0  11690-3 0  9994
2 39019  98.1945 245.6364 0001681  91.3313 268.8079 14.58562902721200
GOKTURK 2               
1 39030U 12073A   26170.58987340  .00000459  00000+0  74341-4 0  9998
2 39030  97.6813   7.9002 0001473  56.9857 303.1494 14.75545286724862
LANDSAT 8               
1 39084U 13008A   26170.56553498  .00000228  00000+0  60776-4 0  9998
2 39084  98.2302 240.6726 0001348  93.8876 266.2477 14.57095860698242
SARAL                   
1 39086U 13009A   26170.55481671  .00000051  00000+0  34784-4 0  9997
2 39086  98.5557 357.0920 0000635 291.8508  68.2608 14.32856404695940
GAOFEN-1                
1 39150U 13018A   26170.63815747  .00001009  00000+0  15179-3 0  9993
2 39150  97.9091 242.6567 0015671 257.7001 102.2454 14.76540877708607
VNREDSAT 1              
1 39160U 13021B   26170.61637500  .00000624  00000+0  12529-3 0  9993
2 39160  97.9073 223.9398 0001717  88.3317 271.8084 14.64859871700648
ARIRANG-5 (KOMPSAT-5)   
1 39227U 13042A   26170.62694530  .00000277  00000+0  24116-4 0  9997
2 39227  97.6201 357.2929 0005427 114.8996 245.2794 15.04494438704223
SKYSAT-A                
1 39418U 13066C   26170.43983930  .00002091  00000+0  12159-3 0  9998
2 39418  97.3811 219.7655 0019953 309.1936  50.7523 15.12985118688824
DUBAISAT-2              
1 39419U 13066D   26170.58863047  .00003025  00000+0  18877-3 0  9992
2 39419  97.4562 160.6703 0011994  32.9747 327.2228 15.10194524686750
GPM-CORE                
1 39574U 14009C   26170.54031820  .00009393  00000+0  20546-3 0  9994
2 39574  64.9724 300.2458 0011743 252.4250 107.5608 15.44614446698177
SENTINEL-1A             
1 39634U 14016A   26170.56177921  .00000155  00000+0  42659-4 0  9991
2 39634  98.1776 178.0602 0001405  81.0587 279.0772 14.59199822650362
KAZEOSAT 1              
1 39731U 14024A   26170.58892345  .00000383  00000+0  12956-3 0  9993
2 39731  98.3203 242.9769 0001325  76.0794 284.0543 14.42081860638909
