OBJECT_NAME,OBJECT_ID,EPOCH,MEAN_MOTION,ECCENTRICITY,INCLINATION,RA_OF_ASC_NODE,ARG_OF_PERICENTER,MEAN_ANOMALY,EPHEMERIS_TYPE,CLASSIFICATION_TYPE,NORAD_CAT_ID,ELEMENT_SET_NO,REV_AT_EPOCH,BSTAR,MEAN_MOTION_DOT,MEAN_MOTION_DDOT
DUBAISAT-1,2009-041B,2026-06-19T07:51:37.851552,14.75125326,.00115941,98.0055,303.5617,67.6524,292.5912,0,U,35682,999,90541,.93000659E-4,.577E-5,0
OCEANSAT-2,2009-051A,2026-06-19T15:07:17.538240,13.99663835,.00153989,98.2323,157.2379,228.5944,131.3900,0,U,35931,999,87967,-.95906796E-4,-.178E-5,0
WORLDVIEW-2 (WV-2),2009-055A,2026-06-19T12:42:48.140640,14.37900026,.00038573,98.4737,243.9470,200.2111,159.8924,0,U,35946,999,87598,.41035065E-4,.8E-6,0
SMOS,2009-059A,2026-06-19T11:35:21.088608,14.39773615,.00013232,98.4425,357.7841,88.1500,271.9840,0,U,36036,999,87378,.68385087E-4,.171E-5,0
YAOGAN-7,2009-069A,2026-06-19T09:22:24.966336,14.78011823,.00254422,98.0069,56.2440,34.9411,325.3463,0,U,36110,999,88995,.56942422E-4,.36E-5,0
TANDEM-X,2010-030A,2026-06-19T11:55:50.861280,15.19151444,.0001891,97.4451,178.1721,87.7400,272.4051,0,U,36605,999,88699,.12414064E-4,.194E-5,0
CARTOSAT-2B,2010-035A,2026-06-19T13:44:49.085376,14.78665577,.00113903,97.9945,221.1079,175.9058,184.2248,0,U,36795,999,86020,.14591389E-3,.1018E-4,0
YAOGAN-10,2010-038A,2026-06-19T15:35:27.004704,14.85357142,.00017481,97.8971,194.0345,87.6085,16.4400,0,U,36834,999,85757,.21122424E-3,.1763E-4,0
COSMO-SKYMED 4,2010-060A,2026-06-19T14:29:53.678400,14.82155109,.00014108,97.8885,354.1681,85.7122,274.4252,0,U,37216,999,84492,.60756942E-4,.431E-5,0
RESOURCESAT-2,2011-015A,2026-06-19T13:15:27.806688,14.21600252,.00102361,98.7644,237.9781,247.8126,112.1966,0,U,37387,999,78651,.53688217E-4,.73E-6,0
HAIYANG-2A,2011-043A,2026-06-19T14:04:24.633408,13.74331787,.00057976,99.3392,173.2097,86.7620,273.4192,0,U,37781,999,74698,-.80952005E-4,-.12E-5,0
RASAT,2011-044D,2026-06-19T15:20:59.636832,14.68168501,.00203777,98.0579,261.9992,180.8222,286.1711,0,U,37791,999,79354,.90832351E-4,.475E-5,0
SRMSAT,2011-058D,2026-06-19T08:38:13.672608,14.11575972,.00117441,19.9728,46.3158,227.6220,288.1945,0,U,37841,999,75812,.48474163E-4,.354E-5,0
PLEIADES 1A,2011-076F,2026-06-19T16:20:51.955296,14.58572940,.00017139,98.1974,245.7512,95.1799,57.2873,0,U,38012,999,77235,.92657332E-4,.385E-5,0
ZIYUAN 1-02C (ZY 1-02C),2011-079A,2026-06-19T16:00:36.244224,14.38217692,.00053669,98.4068,237.9242,308.2623,203.6234,0,U,38038,999,75956,.21362161E-3,.606E-5,0
ARIRANG-3 (KOMPSAT-3),2012-025B,2026-06-19T15:11:37.394016,14.62207901,.00067385,98.1172,128.0508,103.2197,256.9757,0,U,38338,999,75170,.72921648E-4,.321E-5,0
EXACTVIEW-1 (ADS-1B),2012-039C,2026-06-19T13:23:24.801216,14.24985146,.00112898,98.9781,288.0016,159.8104,200.3523,0,U,38709,999,72304,.57016868E-4,.87E-6,0
SPOT 6,2012-047A,2026-06-19T14:22:22.461312,14.58565124,.00015248,98.2114,237.8802,92.6679,267.4695,0,U,38755,999,73340,.10520844E-3,.443E-5,0
PLEIADES 1B,2012-068A,2026-06-19T14:49:37.405920,14.58562902,.00016816,98.1945,245.6364,91.3313,268.8079,0,U,39019,999,72120,.11689786E-3,.498E-5,0
GOKTURK 2,2012-073A,2026-06-19T14:09:25.061760,14.75545286,.00014731,97.6813,7.9002,56.9857,303.1494,0,U,39030,999,72486,.74341116E-4,.459E-5,0
LANDSAT 8,2013-008A,2026-06-19T13:34:22.222272,14.57095860,.00013481,98.2302,240.6726,93.8876,266.2477,0,U,39084,999,69824,.60776028E-4,.228E-5,0
SARAL,2013-009A,2026-06-19T13:18:56.163744,14.32856404,.00006359,98.5557,357.0920,291.8508,68.2608,0,U,39086,999,69594,.34783739E-4,.51E-6,0
GAOFEN-1,2013-018A,2026-06-19T15:18:56.805408,14.76540877,.00156711,97.9091,242.6567,257.7001,102.2454,0,U,39150,999,70860,.15179493E-3,.1009E-4,0
VNREDSAT 1,2013-021B,2026-06-19T14:47:34.800000,14.64859871,.00017178,97.9073,223.9398,88.3317,271.8084,0,U,39160,999,70064,.12528711E-3,.624E-5,0
ARIRANG-5 (KOMPSAT-5),2013-042A,2026-06-19T15:02:48.073920,15.04494438,.00054278,97.6201,357.2929,114.8996,245.2794,0,U,39227,999,70422,.24115739E-4,.277E-5,0
SKYSAT-A,2013-066C,2026-06-19T10:33:22.115520,15.12985118,.00199538,97.3811,219.7655,309.1936,50.7523,0,U,39418,999,68882,.12158831E-3,.2091E-4,0
DUBAISAT-2,2013-066D,2026-06-19T14:07:37.672608,15.10194524,.00119945,97.4562,160.6703,32.9747,327.2228,0,U,39419,999,68675,.18877433E-3,.3025E-4,0
GPM-CORE,2014-009C,2026-06-19T12:58:03.492480,15.44614446,.00117433,64.9724,300.2458,252.4250,107.5608,0,U,39574,999,69817,.20546438E-3,.9393E-4,0
SENTINEL-1A,2014-016A,2026-06-19T13:28:57.723744,14.59199822,.00014056,98.1776,178.0602,81.0587,279.0772,0,U,39634,999,65036,.42659082E-4,.155E-5,0
KAZEOSAT 1,2014-024A,2026-06-19T14:08:02.986080,14.42081860,.00013253,98.3203,242.9769,76.0794,284.0543,0,U,39731,999,63890,.12955907E-3,.383E-5,0
